STARLINK-36265          
1 67208U 25304S   26015.94162196  .00026091  00000+0  59666-3 0  9991
2 67208  70.0005 312.2506 0003328 269.8037  90.2763 15.42736843  5866
STARLINK-36226          
1 67209U 25304T   26015.93351630  .00027564  00000+0  62994-3 0  9998
2 67209  70.0008 312.2216 0003525 266.4333  93.6446 15.42740403  5861
STARLINK-36173          
1 67210U 25304U   26015.99007266  .00026053  00000+0  59573-3 0  9990
2 67210  70.0008 312.0161 0002713 269.3878  90.6993 15.42742057  5876
STARLINK-36280          
1 67211U 25304V   26015.98610852  .00024409  00000+0  55849-3 0  9996
2 67211  70.0005 312.0014 0002936 267.2409  92.8437 15.42740141  5874
STARLINK-36213          
1 67212U 25304W   26015.98214469  .00029170  00000+0  66624-3 0  9994
2 67212  70.0004 311.9870 0003150 270.2845  89.7976 15.42745195  5876
STARLINK-36199          
1 67213U 25304X   26015.91668981 -.00021365  00000+0 -48553-3 0  9991
2 67213  70.0007 312.1124 0003450 268.1358 133.5077 15.42728945  5956
STARLINK-36203          
1 67214U 25304Y   26015.91668981 -.00017431  00000+0 -39507-3 0  9990
2 67214  70.0009 312.0862 0002681 276.5075 148.0782 15.42749255  5952
STARLINK-36221          
1 67215U 25304Z   26015.91668981  .00001047  00000+0  27276-4 0  9996
2 67215  70.0008 312.0608 0003134 276.1725 170.4521 15.42739644  5953
STARLINK-36212          
1 67216U 25304AA  26015.91668981 -.00015168  00000+0 -34346-3 0  9993
2 67216  70.0010 312.0359 0003066 264.1347 205.4949 15.42727936  5955
STARLINK-36216          
1 67217U 25304AB  26015.91668981 -.00528074  00000+0 -12748-1 0  9999
2 67217  70.0010 312.0087 0003623 264.8007 226.6927 15.43055007  5958
STARLINK-36211          
1 67218U 25304AC  26015.91668981 -.01863692  00000+0 -42108-1 0  9992
2 67218  70.0015 311.9813 0003581 275.5829 234.3139 15.46125761  5930
DISKSAT C               
1 67219U 25305A   26015.44777379  .00006673  00000+0  46136-3 0  9996
2 67219  45.0014 172.3937 0001775  32.1474 327.9509 15.06412813  4262
