CCSDS_OMM_VERS = 2.0
CREATION_DATE  = 
ORIGINATOR     = 

OBJECT_NAME    = STARLINK-36265
OBJECT_ID      = 2025-304S
CENTER_NAME    = EARTH
REF_FRAME      = TEME
TIME_SYSTEM    = UTC
MEAN_ELEMENT_THEORY = SGP/SGP4

EPOCH          = 2026-01-15T22:35:56.137344
MEAN_MOTION    = 15.42736843
ECCENTRICITY   = .00033283
INCLINATION    = 70.0005
RA_OF_ASC_NODE = 312.2506
ARG_OF_PERICENTER = 269.8037
MEAN_ANOMALY   = 90.2763

EPHEMERIS_TYPE = 0
CLASSIFICATION_TYPE = U
NORAD_CAT_ID   = 67208
ELEMENT_SET_NO = 999
REV_AT_EPOCH   = 586
BSTAR          = .59665661E-3
MEAN_MOTION_DOT = .26091E-3
MEAN_MOTION_DDOT = 0

CCSDS_OMM_VERS = 2.0
CREATION_DATE  = 
ORIGINATOR     = 

OBJECT_NAME    = STARLINK-36226
OBJECT_ID      = 2025-304T
CENTER_NAME    = EARTH
REF_FRAME      = TEME
TIME_SYSTEM    = UTC
MEAN_ELEMENT_THEORY = SGP/SGP4

EPOCH          = 2026-01-15T22:24:15.808320
MEAN_MOTION    = 15.42740403
ECCENTRICITY   = .00035259
INCLINATION    = 70.0008
RA_OF_ASC_NODE = 312.2216
ARG_OF_PERICENTER = 266.4333
MEAN_ANOMALY   = 93.6446

EPHEMERIS_TYPE = 0
CLASSIFICATION_TYPE = U
NORAD_CAT_ID   = 67209
ELEMENT_SET_NO = 999
REV_AT_EPOCH   = 586
BSTAR          = .62994197E-3
MEAN_MOTION_DOT = .27564E-3
MEAN_MOTION_DDOT = 0

CCSDS_OMM_VERS = 2.0
CREATION_DATE  = 
ORIGINATOR     = 

OBJECT_NAME    = STARLINK-36173
OBJECT_ID      = 2025-304U
CENTER_NAME    = EARTH
REF_FRAME      = TEME
TIME_SYSTEM    = UTC
MEAN_ELEMENT_THEORY = SGP/SGP4

EPOCH          = 2026-01-15T23:45:42.277824
MEAN_MOTION    = 15.42742057
ECCENTRICITY   = .00027136
INCLINATION    = 70.0008
RA_OF_ASC_NODE = 312.0161
ARG_OF_PERICENTER = 269.3878
MEAN_ANOMALY   = 90.6993

EPHEMERIS_TYPE = 0
CLASSIFICATION_TYPE = U
NORAD_CAT_ID   = 67210
ELEMENT_SET_NO = 999
REV_AT_EPOCH   = 587
BSTAR          = .59573458E-3
MEAN_MOTION_DOT = .26053E-3
MEAN_MOTION_DDOT = 0

CCSDS_OMM_VERS = 2.0
CREATION_DATE  = 
ORIGINATOR     = 

OBJECT_NAME    = STARLINK-36280
OBJECT_ID      = 2025-304V
CENTER_NAME    = EARTH
REF_FRAME      = TEME
TIME_SYSTEM    = UTC
MEAN_ELEMENT_THEORY = SGP/SGP4

EPOCH          = 2026-01-15T23:39:59.776128
MEAN_MOTION    = 15.42740141
ECCENTRICITY   = .00029362
INCLINATION    = 70.0005
RA_OF_ASC_NODE = 312.0014
ARG_OF_PERICENTER = 267.2409
MEAN_ANOMALY   = 92.8437

EPHEMERIS_TYPE = 0
CLASSIFICATION_TYPE = U
NORAD_CAT_ID   = 67211
ELEMENT_SET_NO = 999
REV_AT_EPOCH   = 587
BSTAR          = .55848593E-3
MEAN_MOTION_DOT = .24409E-3
MEAN_MOTION_DDOT = 0

CCSDS_OMM_VERS = 2.0
CREATION_DATE  = 
ORIGINATOR     = 

OBJECT_NAME    = STARLINK-36213
OBJECT_ID      = 2025-304W
CENTER_NAME    = EARTH
REF_FRAME      = TEME
TIME_SYSTEM    = UTC
MEAN_ELEMENT_THEORY = SGP/SGP4

EPOCH          = 2026-01-15T23:34:17.301216
MEAN_MOTION    = 15.42745195
ECCENTRICITY   = .00031501
INCLINATION    = 70.0004
RA_OF_ASC_NODE = 311.9870
ARG_OF_PERICENTER = 270.2845
MEAN_ANOMALY   = 89.7976

EPHEMERIS_TYPE = 0
CLASSIFICATION_TYPE = U
NORAD_CAT_ID   = 67212
ELEMENT_SET_NO = 999
REV_AT_EPOCH   = 587
BSTAR          = .66623629E-3
MEAN_MOTION_DOT = .2917E-3
MEAN_MOTION_DDOT = 0

CCSDS_OMM_VERS = 2.0
CREATION_DATE  = 
ORIGINATOR     = 

OBJECT_NAME    = STARLINK-36199
OBJECT_ID      = 2025-304X
CENTER_NAME    = EARTH
REF_FRAME      = TEME
TIME_SYSTEM    = UTC
MEAN_ELEMENT_THEORY = SGP/SGP4

EPOCH          = 2026-01-15T22:00:01.999584
MEAN_MOTION    = 15.42728945
ECCENTRICITY   = .000345
INCLINATION    = 70.0007
RA_OF_ASC_NODE = 312.1124
ARG_OF_PERICENTER = 268.1358
MEAN_ANOMALY   = 133.5077

EPHEMERIS_TYPE = 0
CLASSIFICATION_TYPE = U
NORAD_CAT_ID   = 67213
ELEMENT_SET_NO = 999
REV_AT_EPOCH   = 595
BSTAR          = -.48553049E-3
MEAN_MOTION_DOT = -.21365E-3
MEAN_MOTION_DDOT = 0

CCSDS_OMM_VERS = 2.0
CREATION_DATE  = 
ORIGINATOR     = 

OBJECT_NAME    = STARLINK-36203
OBJECT_ID      = 2025-304Y
CENTER_NAME    = EARTH
REF_FRAME      = TEME
TIME_SYSTEM    = UTC
MEAN_ELEMENT_THEORY = SGP/SGP4

EPOCH          = 2026-01-15T22:00:01.999584
MEAN_MOTION    = 15.42749255
ECCENTRICITY   = .00026819
INCLINATION    = 70.0009
RA_OF_ASC_NODE = 312.0862
ARG_OF_PERICENTER = 276.5075
MEAN_ANOMALY   = 148.0782

EPHEMERIS_TYPE = 0
CLASSIFICATION_TYPE = U
NORAD_CAT_ID   = 67214
ELEMENT_SET_NO = 999
REV_AT_EPOCH   = 595
BSTAR          = -.39507461E-3
MEAN_MOTION_DOT = -.17431E-3
MEAN_MOTION_DDOT = 0

CCSDS_OMM_VERS = 2.0
CREATION_DATE  = 
ORIGINATOR     = 

OBJECT_NAME    = STARLINK-36221
OBJECT_ID      = 2025-304Z
CENTER_NAME    = EARTH
REF_FRAME      = TEME
TIME_SYSTEM    = UTC
MEAN_ELEMENT_THEORY = SGP/SGP4

EPOCH          = 2026-01-15T22:00:01.999584
MEAN_MOTION    = 15.42739644
ECCENTRICITY   = .0003134
INCLINATION    = 70.0008
RA_OF_ASC_NODE = 312.0608
ARG_OF_PERICENTER = 276.1725
MEAN_ANOMALY   = 170.4521

EPHEMERIS_TYPE = 0
CLASSIFICATION_TYPE = U
NORAD_CAT_ID   = 67215
ELEMENT_SET_NO = 999
REV_AT_EPOCH   = 595
BSTAR          = .27276326E-4
MEAN_MOTION_DOT = .1047E-4
MEAN_MOTION_DDOT = 0

CCSDS_OMM_VERS = 2.0
CREATION_DATE  = 
ORIGINATOR     = 

OBJECT_NAME    = STARLINK-36212
OBJECT_ID      = 2025-304AA
CENTER_NAME    = EARTH
REF_FRAME      = TEME
TIME_SYSTEM    = UTC
MEAN_ELEMENT_THEORY = SGP/SGP4

EPOCH          = 2026-01-15T22:00:01.999584
MEAN_MOTION    = 15.42727936
ECCENTRICITY   = .00030668
INCLINATION    = 70.0010
RA_OF_ASC_NODE = 312.0359
ARG_OF_PERICENTER = 264.1347
MEAN_ANOMALY   = 205.4949

EPHEMERIS_TYPE = 0
CLASSIFICATION_TYPE = U
NORAD_CAT_ID   = 67216
ELEMENT_SET_NO = 999
REV_AT_EPOCH   = 595
BSTAR          = -.34345585E-3
MEAN_MOTION_DOT = -.15168E-3
MEAN_MOTION_DDOT = 0

CCSDS_OMM_VERS = 2.0
CREATION_DATE  = 
ORIGINATOR     = 

OBJECT_NAME    = STARLINK-36216
OBJECT_ID      = 2025-304AB
CENTER_NAME    = EARTH
REF_FRAME      = TEME
TIME_SYSTEM    = UTC
MEAN_ELEMENT_THEORY = SGP/SGP4

EPOCH          = 2026-01-15T22:00:01.999584
MEAN_MOTION    = 15.43055007
ECCENTRICITY   = .00036232
INCLINATION    = 70.0010
RA_OF_ASC_NODE = 312.0087
ARG_OF_PERICENTER = 264.8007
MEAN_ANOMALY   = 226.6927

EPHEMERIS_TYPE = 0
CLASSIFICATION_TYPE = U
NORAD_CAT_ID   = 67217
ELEMENT_SET_NO = 999
REV_AT_EPOCH   = 595
BSTAR          = -.12747789E-1
MEAN_MOTION_DOT = -.528074E-2
MEAN_MOTION_DDOT = 0

CCSDS_OMM_VERS = 2.0
CREATION_DATE  = 
ORIGINATOR     = 

OBJECT_NAME    = STARLINK-36211
OBJECT_ID      = 2025-304AC
CENTER_NAME    = EARTH
REF_FRAME      = TEME
TIME_SYSTEM    = UTC
MEAN_ELEMENT_THEORY = SGP/SGP4

EPOCH          = 2026-01-15T22:00:01.999584
MEAN_MOTION    = 15.46125761
ECCENTRICITY   = .00035813
INCLINATION    = 70.0015
RA_OF_ASC_NODE = 311.9813
ARG_OF_PERICENTER = 275.5829
MEAN_ANOMALY   = 234.3139

EPHEMERIS_TYPE = 0
CLASSIFICATION_TYPE = U
NORAD_CAT_ID   = 67218
ELEMENT_SET_NO = 999
REV_AT_EPOCH   = 593
BSTAR          = -.42107926E-1
MEAN_MOTION_DOT = -.1863692E-1
MEAN_MOTION_DDOT = 0

CCSDS_OMM_VERS = 2.0
CREATION_DATE  = 
ORIGINATOR     = 

OBJECT_NAME    = DISKSAT C
OBJECT_ID      = 2025-305A
CENTER_NAME    = EARTH
REF_FRAME      = TEME
TIME_SYSTEM    = UTC
MEAN_ELEMENT_THEORY = SGP/SGP4

EPOCH          = 2026-01-15T10:44:47.655456
MEAN_MOTION    = 15.06412813
ECCENTRICITY   = .00017751
INCLINATION    = 45.0014
RA_OF_ASC_NODE = 172.3937
ARG_OF_PERICENTER = 32.1474
MEAN_ANOMALY   = 327.9509

EPHEMERIS_TYPE = 0
CLASSIFICATION_TYPE = U
NORAD_CAT_ID   = 67219
ELEMENT_SET_NO = 999
REV_AT_EPOCH   = 426
BSTAR          = .4613559E-3
MEAN_MOTION_DOT = .6673E-4
MEAN_MOTION_DDOT = 0

